[{"OBJECT_NAME":"GENMAT-1","OBJECT_ID":"2023-174W","EPOCH":"2026-03-09T18:03:23.351040","MEAN_MOTION":15.32594666,"ECCENTRICITY":0.00074416,"INCLINATION":97.3728,"RA_OF_ASC_NODE":146.8236,"ARG_OF_PERICENTER":169.2515,"MEAN_ANOMALY":190.8888,"EPHEMERIS_TYPE":0,"CLASSIFICATION_TYPE":"U","NORAD_CAT_ID":58276,"ELEMENT_SET_NO":999,"REV_AT_EPOCH":12973,"BSTAR":0.00042157222,"MEAN_MOTION_DOT":0.0001321,"MEAN_MOTION_DDOT":0},{"OBJECT_NAME":"STARLINK-34694","OBJECT_ID":"2025-243N","EPOCH":"2026-03-09T18:07:57.138816","MEAN_MOTION":15.30188707,"ECCENTRICITY":7.597e-5,"INCLINATION":53.1598,"RA_OF_ASC_NODE":244.9627,"ARG_OF_PERICENTER":22.0027,"MEAN_ANOMALY":338.1006,"EPHEMERIS_TYPE":0,"CLASSIFICATION_TYPE":"U","NORAD_CAT_ID":66189,"ELEMENT_SET_NO":999,"REV_AT_EPOCH":2066,"BSTAR":0.001119558,"MEAN_MOTION_DOT":0.00032934,"MEAN_MOTION_DDOT":0}]
